OBJECT_NAME,OBJECT_ID,EPOCH,MEAN_MOTION,ECCENTRICITY,INCLINATION,RA_OF_ASC_NODE,ARG_OF_PERICENTER,MEAN_ANOMALY,EPHEMERIS_TYPE,CLASSIFICATION_TYPE,NORAD_CAT_ID,ELEMENT_SET_NO,REV_AT_EPOCH,BSTAR,MEAN_MOTION_DOT,MEAN_MOTION_DDOT
BEIDOU-3 M28 (C50),2023-207A,2026-06-02T06:20:46.541184,1.86229873,.0003671,55.7401,62.8066,340.5221,19.4799,0,U,58654,999,1656,0,-.57E-6,0
BEIDOU-3 M26 (C48),2023-207B,2026-06-03T03:15:36.834336,1.86229917,.0003644,55.7428,62.7637,315.9700,44.0214,0,U,58655,999,1656,0,-.5E-6,0
GSAT0225 (GALILEO 29),2024-079A,2026-06-02T11:03:38.641824,1.70474350,.00019635,55.1106,101.4917,291.4944,256.2919,0,U,59598,999,1306,0,.3E-7,0
GSAT0227 (GALILEO 30),2024-079C,2026-06-03T12:16:25.601088,1.70474141,.00018111,55.1069,101.4607,41.5865,318.3839,0,U,59600,999,1313,0,.8E-7,0
GSAT0232 (GALILEO 32),2024-167A,2026-06-03T17:48:15.192000,1.70474585,.00058373,55.1885,221.6830,224.2725,132.6856,0,U,61182,999,1064,0,.41E-6,0
GSAT0226 (GALILEO 31),2024-167B,2026-06-04T04:33:38.337120,1.70474563,.0002612,55.1871,221.6779,221.8766,141.4823,0,U,61183,999,1063,0,.41E-6,0
BEIDOU-3 M25 (C47),2024-168B,2026-06-03T12:15:20.953152,1.86230357,.00030517,54.4863,302.7180,307.2395,61.3558,0,U,61186,999,1153,0,-.63E-6,0
BEIDOU-3 M27 (C49),2024-168C,2026-06-04T02:31:33.608640,1.86230403,.0001811,54.4813,302.6804,47.0826,135.1797,0,U,61187,999,901,0,-.6E-6,0
GPS BIII-7  (PRN 01),2024-242A,2026-06-04T03:14:26.748384,2.00571604,.0017383,54.8549,334.7108,4.3367,180.0182,0,U,62339,999,1099,0,-.75E-6,0
QZS-6 (QZSS/PRN 200),2025-023A,2026-06-04T04:12:21.631104,1.00268643,.0002593,0.0196,27.3438,49.4967,329.3335,0,U,62876,999,481,0,-.22E-5,0
COSMOS 2584 (704K),2025-042A,2026-05-31T05:55:39.458208,2.13103967,.00059206,65.0752,73.3776,230.3550,129.5914,0,U,63130,999,968,0,-.44E-6,0
GPS BIII-8  (PRN 21),2025-116A,2026-06-04T02:55:38.657280,2.00577105,.0008467,55.2255,31.6566,337.9312,19.6121,0,U,64202,999,760,0,-.73E-6,0
COSMOS 2596 (708K),2025-206B,2026-05-29T16:25:48.887904,2.13100909,.00111512,64.6467,315.6290,314.6394,43.2361,0,U,65590,999,551,0,-.68E-6,0
GSAT0233 (GALILEO 33),2025-302A,2026-06-03T17:38:43.922976,1.70474417,.00014155,54.3270,102.5146,232.9614,307.7753,0,U,67160,999,289,0,.1E-6,0
GSAT0234 (GALILEO 34),2025-302C,2026-06-03T20:33:01.967328,1.70474390,.0003271,54.3286,102.5103,302.9496,132.1778,0,U,67162,999,295,0,.1E-6,0
GPS BIII-9  (PRN 20),2026-017A,2026-06-01T05:50:24.293472,2.00571608,.00226248,55.0787,89.3950,257.1779,102.5406,0,U,67588,999,43129,0,-.3E-6,0
GPS BIII-10 (PRN 13),2026-087A,2026-06-03T13:25:51.221568,2.00569347,.0020961,54.9640,208.3268,107.1366,330.7802,0,U,68791,999,56,0,.45E-6,0
