BEIDOU-3 M28            
1 58654U 23207A   26153.26442756 -.00000057  00000+0  00000+0 0  9996
2 58654  55.7401  62.8066 0003671 340.5221  19.4799  1.86229873 16567
BEIDOU-3 M26            
1 58655U 23207B   26154.13584299 -.00000050  00000+0  00000+0 0  9996
2 58655  55.7428  62.7637 0003644 315.9700  44.0214  1.86229917 16563
GSAT0225 (GALILEO 29)   
1 59598U 24079A   26153.46086391  .00000003  00000+0  00000+0 0  9993
2 59598  55.1106 101.4917 0001963 291.4944 256.2919  1.70474350 13066
GSAT0227 (GALILEO 30)   
1 59600U 24079C   26154.51140742  .00000008  00000+0  00000+0 0  9990
2 59600  55.1069 101.4607 0001811  41.5865 318.3839  1.70474141 13139
GSAT0232 (GALILEO 32)   
1 61182U 24167A   26154.74184250  .00000041  00000+0  00000+0 0  9990
2 61182  55.1885 221.6830 0005837 224.2725 132.6856  1.70474585 10644
GSAT0226 (GALILEO 31)   
1 61183U 24167B   26155.19002705  .00000041  00000+0  00000+0 0  9995
2 61183  55.1871 221.6779 0002612 221.8766 141.4823  1.70474563 10635
BEIDOU-3 M25            
1 61186U 24168B   26154.51065918 -.00000063  00000+0  00000+0 0  9994
2 61186  54.4863 302.7180 0003051 307.2395  61.3558  1.86230357 11536
BEIDOU-3 M27            
1 61187U 24168C   26155.10525010 -.00000060  00000+0  00000+0 0  9992
2 61187  54.4813 302.6804 0001811  47.0826 135.1797  1.86230403  9011
NAVSTAR 83 (USA 440)    
1 62339U 24242A   26155.13503181 -.00000075  00000+0  00000+0 0  9999
2 62339  54.8549 334.7108 0017383   4.3367 180.0182  2.00571604 10995
QZS-6 (MICHIBIKI-6)     
1 62876U 25023A   26155.17525036 -.00000220  00000+0  00000+0 0  9992
2 62876   0.0196  27.3438 0002593  49.4967 329.3335  1.00268643  4813
COSMOS 2584 [GLONASS-K2]
1 63130U 25042A   26151.24698447 -.00000044  00000+0  00000+0 0  9992
2 63130  65.0752  73.3776 0005920 230.3550 129.5914  2.13103967  9683
NAVSTAR 84 (USA 545)    
1 64202U 25116A   26155.12197520 -.00000073  00000+0  00000+0 0  9994
2 64202  55.2255  31.6566 0008467 337.9312  19.6121  2.00577105  7600
COSMOS 2596 [GLONASS-K1]
1 65590U 25206B   26149.68459361 -.00000068  00000+0  00000+0 0  9997
2 65590  64.6467 315.6290 0011151 314.6394  43.2361  2.13100909  5510
GSAT0233 (GALILEO 33)   
1 67160U 25302A   26154.73523059  .00000010  00000+0  00000+0 0  9993
2 67160  54.3270 102.5146 0001415 232.9614 307.7753  1.70474417  2896
GSAT0234 (GALILEO 34)   
1 67162U 25302C   26154.85627277  .00000010  00000+0  00000+0 0  9995
2 67162  54.3286 102.5103 0003271 302.9496 132.1778  1.70474390  2950
NAVSTAR 85 (USA 581)    
1 67588U 26017A   26152.24333673 -.00000030  00000+0  00000+0 0  9999
2 67588  55.0787  89.3950 0022624 257.1779 102.5406  2.00571608431292
NAVSTAR 86 (USA 585)    
1 68791U 26087A   26154.55962062  .00000045  00000+0  00000+0 0  9994
2 68791  54.9640 208.3268 0020961 107.1366 330.7802  2.00569347   562
